OPTICUBE 04             
1 41851U 16067D   19166.80592343  .00000196  00000-0  22440-4 0  9998
2 41851  97.9156 264.3819 0009605  42.6002 317.5962 14.96801756141483
AEROCUBE 8D             
1 41852U 16067E   19166.80851834  .00000399  00000-0  40236-4 0  9990
2 41852  97.9169 264.2096 0010388  42.6317 317.5709 14.96710261141460
AEROCUBE 8C             
1 41853U 16067F   19166.83135775  .00000309  00000-0  32371-4 0  9995
2 41853  97.9176 264.1694 0011123  43.5390 316.6707 14.96680715141469
PROMETHEUS 2-1          
1 41854U 16067G   19166.86597707  .00000220  00000-0  24467-4 0  9995
2 41854  97.9173 264.3374 0010949  41.6703 318.5350 14.96888851141473
PROMETHEUS 2-3          
1 41855U 16067H   19166.80148348  .00000281  00000-0  29751-4 0  9991
2 41855  97.9176 264.2877 0011134  42.3794 317.8285 14.96893511141466
INS-1B                  
1 41954U 17008G   19166.73789658  .00000950  00000-0  42196-4 0  9995
2 41954  97.4000 231.8192 0010157 147.3240 212.8628 15.23932926129357
BGUSAT                  
1 41999U 17008BD  19166.72620038  .00001551  00000-0  62948-4 0  9994
2 41999  97.4074 234.1612 0008817 158.6377 201.5231 15.26091393128841
DIDO-2                  
1 42000U 17008BE  19166.85822636  .00000685  00000-0  31275-4 0  9996
2 42000  97.4012 232.4839 0008947 163.5688 196.5840 15.23888295128776
PEASSS                  
1 42015U 17008BV  19166.82375882  .00000839  00000-0  36635-4 0  9991
2 42015  97.4021 233.4009 0006724 165.3178 194.8256 15.24847775129319
AL-FARABI 1             
1 42016U 17008BW  19166.88939270  .00001059  00000-0  44673-4 0  9991
2 42016  97.4035 234.0025 0006637 163.7599 196.3853 15.25477276129475
NAYIF-1 (EO-88)         
1 42017U 17008BX  19166.87696713  .00001084  00000-0  45629-4 0  9993
2 42017  97.4032 234.0001 0006604 163.8555 196.2895 15.25510821129495
ALTAIR PATHFINDER       
1 42711U 98067LS  19166.62403316  .00032466  00000-0  16950-3 0  9998
2 42711  51.6342 305.6859 0001445 142.5113 217.5990 15.80562640118601
ZA-AEROSAT              
1 42713U 98067LU  19151.03730059  .02928871  12128-4  58594-3 0  9990
2 42713  51.6172 356.2792 0012791 275.7272  84.2292 16.30383675116521
NJUST-1                 
1 42722U 98067MB  19166.84975890  .00165825  22809-4  30954-3 0  9996
2 42722  51.6291 283.4453 0005145 313.2901 138.5038 16.00614647117985
NSIGHT                  
1 42726U 98067MF  19166.84874245  .00017452  00000-0  13917-3 0  9999
2 42726  51.6362 323.2512 0004664 165.9258 194.1870 15.71254352117374
UCLSAT                  
1 42765U 17036A   19166.84280039  .00000805  00000-0  37475-4 0  9991
2 42765  97.3512 224.9142 0010029 234.5086 125.5216 15.22727596110625
LITUANICASAT-2          
1 42768U 17036D   19166.75604247  .00001407  00000-0  63096-4 0  9992
2 42768  97.3548 224.4290 0013889 225.4698 134.5405 15.22767187109865
AALTO-1                 
1 42775U 17036L   19166.83417802  .00000523  00000-0  26373-4 0  9993
2 42775  97.3497 223.6618 0012770 225.3688 134.6508 15.21326138109778
URSA MAIOR              
1 42776U 17036M   19166.92672643  .00000579  00000-0  28782-4 0  9997
2 42776  97.3506 223.8986 0012594 224.8700 135.1519 15.21457467109793
COMPASS 2               
1 42777U 17036N   19166.70878966  .00001105  00000-0  50092-4 0  9995
2 42777  97.3545 224.8425 0011277 225.9442 134.0866 15.22868600109810
DIAMOND RED             
1 42783U 17036U   19166.88705464  .00000682  00000-0  32692-4 0  9998
2 42783  97.3512 224.5622 0010718 235.8831 124.1389 15.22185275109829
PEGASUS                 
1 42784U 17036V   19166.66951018  .00000769  00000-0  36178-4 0  9992
2 42784  97.3517 224.5671 0010598 236.2860 123.7367 15.22475378109807
DIAMOND GREEN           
1 42785U 17036W   19166.68865243  .00000684  00000-0  32772-4 0  9991
2 42785  97.3515 224.3921 0010581 237.3940 122.6276 15.22186095109863
DIAMOND BLUE            
1 42786U 17036X   19166.88495093  .00000673  00000-0  32298-4 0  9997
2 42786  97.3514 224.5824 0010432 236.7668 123.2569 15.22183459109898
NUDTSAT                 
1 42787U 17036Y   19166.93205477  .00001299  00000-0  57449-4 0  9999
2 42787  97.3545 225.4934 0009905 242.2956 117.7277 15.23429921109724
SUCHAI                  
1 42788U 17036Z   19166.80886021  .00000918  00000-0  42113-4 0  9995
2 42788  97.3522 224.9999 0010186 234.6986 125.3299 15.22887467109918
SKCUBE                  
1 42789U 17036AA  19166.69301555  .00000862  00000-0  39826-4 0  9992
2 42789  97.3517 224.8302 0010046 235.1900 124.8392 15.22788774109815
VZLUSAT-1               
1 42790U 17036AB  19166.85319419  .00001118  00000-0  49838-4 0  9999
2 42790  97.3532 225.4215 0009643 232.9826 127.0529 15.23429144109863
ROBUSTA-1B              
1 42792U 17036AD  19166.82132501  .00000902  00000-0  41329-4 0  9990
2 42792  97.3518 225.1021 0009620 235.1493 124.8840 15.22953983109853
CICERO 6                
1 42793U 17036AE  19166.74892880  .00000600  00000-0  28811-4 0  9991
2 42793  97.3501 224.8210 0008850 237.0752 122.9634 15.22561139109909
D-SAT                   
1 42794U 17036AF  19166.85509752  .00000137  00000-0  17206-4 0  9998
2 42794  97.5396 211.6842 0127444 150.5014 210.3476 14.91092397107915
CORVUS BC2              
1 42846U 17042X   19166.59406370  .00000230  00000-0  28019-4 0  9994
2 42846  97.5665  60.7203 0011112  68.6328 291.6076 14.91971730104559
CORVUS BC1              
1 42847U 17042Y   19166.74869640 -.00000043  00000-0  10639-5 0  9998
2 42847  97.5665  60.9746 0010776  67.9057 292.3306 14.92071883104577
MIRATA                  
1 43015U 17073C   19166.84304434  .00000406  00000-0  37025-4 0  9995
2 43015  97.7199  88.1698 0255651 166.7506 194.0591 14.78963015 84872
MAKERSAT 0              
1 43016U 17073D   19166.72133910  .00000294  00000-0  28294-4 0  9995
2 43016  97.7233  88.2514 0257840 167.5027 193.2746 14.78722850 84850
ASTERIA                 
1 43020U 98067NH  19166.86983042  .00019581  00000-0  16058-3 0  9999
2 43020  51.6430 334.0965 0002173 115.4184 244.7039 15.70492397 89415
DELLINGR (RBLE)         
1 43021U 98067NJ  19166.77016652  .00006562  00000-0  76432-4 0  9992
2 43021  51.6386 346.8280 0002725  99.3059 260.8243 15.63070384 89237
AEROCUBE 7B (OCSD B)    
1 43042U 17071F   19166.91064997  .00001976  00000-0  56604-4 0  9995
2 43042  51.6393  66.5159 0005060 137.1602 222.9778 15.41161982 85654
AEROCUBE 7C (OCSD C)    
1 43043U 17071G   19166.91067322  .00002088  00000-0  59252-4 0  9998
2 43043  51.6394  66.5298 0005242 141.5127 218.6233 15.41166507 85626
CHEFSAT                 
1 43044U 17071H   19166.84095326  .00005009  00000-0  11791-3 0  9997
2 43044  51.6396  61.6785 0005129 138.0968 222.0412 15.43790683 85688
ASGARDIA 1              
1 43049U 17071N   19166.92766045  .00002190  00000-0  61389-4 0  9991
2 43049  51.6402  65.9219 0002612 149.5889 210.5248 15.41292910 85635
ISARA                   
1 43050U 17071P   19166.92049836  .00003910  00000-0  95609-4 0  9998
2 43050  51.6391  62.1688 0002542 143.1714 216.9447 15.43288815 85689
PROPCUBE 2 (FAUNA)      
1 43052U 17071R   19166.67456723  .00002312  00000-0  63711-4 0  9993
2 43052  51.6400  66.4998 0002605 144.4845 215.6314 15.41568321 85592
CORVUS BC3              
1 43118U 18004H   19166.71454129  .00000538  00000-0  26042-4 0  9990
2 43118  97.4868 234.0818 0008797 260.8386  99.1855 15.22834109 79021
MICROMAS-2A             
1 43131U 18004W   19166.72334667  .00001260  00000-0  54838-4 0  9997
2 43131  97.4893 234.7707 0007742 262.3263  97.7095 15.24098334 79066
CICERO 7                
1 43143U 18004AJ  19166.74702195  .00001094  00000-0  47814-4 0  9998
2 43143  97.4879 235.0084 0005846 273.9472  86.1097 15.24236130 79082
GOMX-4B                 
1 43196U 18015E   19166.94625452  .00000204  00000-0  11377-4 0  9997
2 43196  97.3891 294.5247 0018664 321.0394  38.9491 15.23936863 75925
GOMX-4A                 
1 43197U 18015F   19166.94965192  .00000260  00000-0  13655-4 0  9999
2 43197  97.3914 294.5538 0017948 322.4606 155.4601 15.24031320 75934
1KUNS-PF                
1 43466U 98067NP  19166.72357703  .00015748  00000-0  15560-3 0  9995
2 43466  51.6378 349.4919 0001298 132.3838 227.7268 15.66078444 62458
UBAKUSAT                
1 43467U 98067NQ  19166.72656561  .00009900  00000-0  11375-3 0  9993
2 43467  51.6379 353.2608 0002603  75.6190 284.5093 15.62738610 62416
BATSU-CS1 (IRAZU)       
1 43468U 98067NR  19166.90920819  .00022231  00000-0  19414-3 0  9998
2 43468  51.6368 345.4604 0001132 152.1592 207.9466 15.68870813162510
CUBERRT                 
1 43546U 98067NU  19166.89428149  .00022460  00000-0  23344-3 0  9993
2 43546  51.6385 353.6292 0005339 123.4996 236.6509 15.64508774 52551
TEMPEST-D               
1 43547U 98067NV  19166.90535294  .00003047  00000-0  46574-4 0  9997
2 43547  51.6389   0.4519 0006260 112.0916 248.0741 15.57941697 52142
RAINCUBE                
1 43548U 98067NW  19166.91079102  .00009487  00000-0  11514-3 0  9999
2 43548  51.6373 356.7256 0006075 125.3675 234.7887 15.61355239 52648
HALOSAT                 
1 43549U 98067NX  19166.78659281  .00010468  00000-0  12669-3 0  9990
2 43549  51.6380 357.4065 0006039 126.3038 233.8514 15.61294456 52186
ENDUROSAT ONE           
1 43551U 98067NZ  19166.81079362  .00011942  00000-0  13558-3 0  9999
2 43551  51.6380 355.3219 0006314 135.6692 224.4808 15.62801129 52625
EQUISAT                 
1 43552U 98067PA  19166.78871270  .00009716  00000-0  11666-3 0  9998
2 43552  51.6392 356.6934 0006622 133.4619 226.6927 15.61602344 52560
AEROCUBE 12A            
1 43556U 18046C   19166.84088869  .00000126  00000-0  17147-4 0  9999
2 43556  51.6434  70.3281 0009096  61.4833 298.7061 15.28698437 51123
AEROCUBE 12B            
1 43557U 18046D   19166.85416062  .00000566  00000-0  32779-4 0  9997
2 43557  51.6439  70.4133 0009065  61.2478 298.9412 15.28575503 51079
